{"fetched_at":"2026-07-05T17:36:11.010Z","source":"https://celestrak.org/NORAD/elements/gp.php?GROUP=planet&FORMAT=JSON","constellation":"superdove","records":[{"OBJECT_NAME":"FLOCK 4G-17","OBJECT_ID":"2025-009CA","EPOCH":"2026-07-05T04:29:36.741984","CLASSIFICATION_TYPE":"U","MEAN_MOTION":15.29933801,"ECCENTRICITY":0.00033182,"INCLINATION":97.3917,"RA_OF_ASC_NODE":267.4644,"ARG_OF_PERICENTER":259.1424,"MEAN_ANOMALY":100.9443,"EPHEMERIS_TYPE":0,"NORAD_CAT_ID":62681,"ELEMENT_SET_NO":999,"REV_AT_EPOCH":13930,"BSTAR":0.0006644187,"MEAN_MOTION_DOT":0.0001921,"MEAN_MOTION_DDOT":0},{"OBJECT_NAME":"FLOCK 4G-33","OBJECT_ID":"2025-009CE","EPOCH":"2026-07-05T03:42:45.468288","CLASSIFICATION_TYPE":"U","MEAN_MOTION":15.25718139,"ECCENTRICITY":0.00039837,"INCLINATION":97.3939,"RA_OF_ASC_NODE":265.821,"ARG_OF_PERICENTER":259.5793,"MEAN_ANOMALY":100.4997,"EPHEMERIS_TYPE":0,"NORAD_CAT_ID":62685,"ELEMENT_SET_NO":999,"REV_AT_EPOCH":8154,"BSTAR":0.00041286382,"MEAN_MOTION_DOT":0.00010461,"MEAN_MOTION_DDOT":0},{"OBJECT_NAME":"FLOCK 4H-1","OBJECT_ID":"2025-276AQ","EPOCH":"2026-07-05T03:28:39.869760","CLASSIFICATION_TYPE":"U","MEAN_MOTION":15.20761721,"ECCENTRICITY":0.00009668,"INCLINATION":97.4169,"RA_OF_ASC_NODE":259.5483,"ARG_OF_PERICENTER":207.7241,"MEAN_ANOMALY":152.3943,"EPHEMERIS_TYPE":0,"NORAD_CAT_ID":66704,"ELEMENT_SET_NO":999,"REV_AT_EPOCH":3316,"BSTAR":0.00051056131,"MEAN_MOTION_DOT":0.00011183,"MEAN_MOTION_DDOT":0},{"OBJECT_NAME":"FLOCK 4H-2","OBJECT_ID":"2025-276AR","EPOCH":"2026-07-05T04:28:05.335104","CLASSIFICATION_TYPE":"U","MEAN_MOTION":15.21033356,"ECCENTRICITY":0.00006506,"INCLINATION":97.4163,"RA_OF_ASC_NODE":259.634,"ARG_OF_PERICENTER":156.4004,"MEAN_ANOMALY":203.7262,"EPHEMERIS_TYPE":0,"NORAD_CAT_ID":66705,"ELEMENT_SET_NO":999,"REV_AT_EPOCH":3317,"BSTAR":0.00048033429,"MEAN_MOTION_DOT":0.000106,"MEAN_MOTION_DDOT":0},{"OBJECT_NAME":"FLOCK 4H-3","OBJECT_ID":"2025-276AS","EPOCH":"2026-07-04T10:42:44.700480","CLASSIFICATION_TYPE":"U","MEAN_MOTION":15.2013843,"ECCENTRICITY":0.00024893,"INCLINATION":97.4233,"RA_OF_ASC_NODE":258.8348,"ARG_OF_PERICENTER":313.0638,"MEAN_ANOMALY":47.0389,"EPHEMERIS_TYPE":0,"NORAD_CAT_ID":66706,"ELEMENT_SET_NO":999,"REV_AT_EPOCH":3304,"BSTAR":0.00038382504,"MEAN_MOTION_DOT":0.00008236,"MEAN_MOTION_DDOT":0},{"OBJECT_NAME":"FLOCK 4H-4","OBJECT_ID":"2025-276AT","EPOCH":"2026-07-05T03:20:33.925920","CLASSIFICATION_TYPE":"U","MEAN_MOTION":15.19939845,"ECCENTRICITY":0.00031526,"INCLINATION":97.4217,"RA_OF_ASC_NODE":259.3892,"ARG_OF_PERICENTER":307.9719,"MEAN_ANOMALY":52.1231,"EPHEMERIS_TYPE":0,"NORAD_CAT_ID":66707,"ELEMENT_SET_NO":999,"REV_AT_EPOCH":3314,"BSTAR":0.00057037616,"MEAN_MOTION_DOT":0.00012208,"MEAN_MOTION_DDOT":0},{"OBJECT_NAME":"FLOCK 4H-5","OBJECT_ID":"2025-276AU","EPOCH":"2026-07-05T03:18:01.789344","CLASSIFICATION_TYPE":"U","MEAN_MOTION":15.2081857,"ECCENTRICITY":0.00008352,"INCLINATION":97.4167,"RA_OF_ASC_NODE":259.5614,"ARG_OF_PERICENTER":124.406,"MEAN_ANOMALY":235.7255,"EPHEMERIS_TYPE":0,"NORAD_CAT_ID":66708,"ELEMENT_SET_NO":999,"REV_AT_EPOCH":3316,"BSTAR":0.00052678579,"MEAN_MOTION_DOT":0.0001156,"MEAN_MOTION_DDOT":0},{"OBJECT_NAME":"FLOCK 4H-6","OBJECT_ID":"2025-276AV","EPOCH":"2026-07-05T04:21:22.365504","CLASSIFICATION_TYPE":"U","MEAN_MOTION":15.20519761,"ECCENTRICITY":0.0001687,"INCLINATION":97.4218,"RA_OF_ASC_NODE":259.6462,"ARG_OF_PERICENTER":258.0243,"MEAN_ANOMALY":102.0803,"EPHEMERIS_TYPE":0,"NORAD_CAT_ID":66709,"ELEMENT_SET_NO":999,"REV_AT_EPOCH":3316,"BSTAR":0.00054596801,"MEAN_MOTION_DOT":0.0001188,"MEAN_MOTION_DDOT":0},{"OBJECT_NAME":"FLOCK 4H-7","OBJECT_ID":"2025-276AW","EPOCH":"2026-07-03T17:07:49.244160","CLASSIFICATION_TYPE":"U","MEAN_MOTION":15.20255046,"ECCENTRICITY":0.00017032,"INCLINATION":97.4178,"RA_OF_ASC_NODE":257.9685,"ARG_OF_PERICENTER":13.5137,"MEAN_ANOMALY":346.6144,"EPHEMERIS_TYPE":0,"NORAD_CAT_ID":66710,"ELEMENT_SET_NO":999,"REV_AT_EPOCH":3293,"BSTAR":0.00034819652,"MEAN_MOTION_DOT":0.00007489,"MEAN_MOTION_DDOT":0},{"OBJECT_NAME":"FLOCK 4H-8","OBJECT_ID":"2025-276AX","EPOCH":"2026-07-05T03:40:54.423552","CLASSIFICATION_TYPE":"U","MEAN_MOTION":15.20394962,"ECCENTRICITY":0.00022582,"INCLINATION":97.4215,"RA_OF_ASC_NODE":259.5277,"ARG_OF_PERICENTER":330.2933,"MEAN_ANOMALY":29.8174,"EPHEMERIS_TYPE":0,"NORAD_CAT_ID":66711,"ELEMENT_SET_NO":999,"REV_AT_EPOCH":3315,"BSTAR":0.00059632152,"MEAN_MOTION_DOT":0.00012937,"MEAN_MOTION_DDOT":0},{"OBJECT_NAME":"FLOCK 4H-9","OBJECT_ID":"2025-276AY","EPOCH":"2026-07-05T04:03:37.427616","CLASSIFICATION_TYPE":"U","MEAN_MOTION":15.20691854,"ECCENTRICITY":0.00017971,"INCLINATION":97.4204,"RA_OF_ASC_NODE":259.6345,"ARG_OF_PERICENTER":270.8119,"MEAN_ANOMALY":89.2911,"EPHEMERIS_TYPE":0,"NORAD_CAT_ID":66712,"ELEMENT_SET_NO":999,"REV_AT_EPOCH":3316,"BSTAR":0.00053543433,"MEAN_MOTION_DOT":0.00011708,"MEAN_MOTION_DDOT":0},{"OBJECT_NAME":"FLOCK 4H-10","OBJECT_ID":"2025-276AZ","EPOCH":"2026-07-05T04:33:38.026080","CLASSIFICATION_TYPE":"U","MEAN_MOTION":15.20069874,"ECCENTRICITY":0.00029677,"INCLINATION":97.4179,"RA_OF_ASC_NODE":259.3773,"ARG_OF_PERICENTER":310.1847,"MEAN_ANOMALY":49.9128,"EPHEMERIS_TYPE":0,"NORAD_CAT_ID":66713,"ELEMENT_SET_NO":999,"REV_AT_EPOCH":3315,"BSTAR":0.00055254948,"MEAN_MOTION_DOT":0.00011868,"MEAN_MOTION_DDOT":0},{"OBJECT_NAME":"FLOCK 4H-11","OBJECT_ID":"2025-276BA","EPOCH":"2026-07-04T15:27:48.720096","CLASSIFICATION_TYPE":"U","MEAN_MOTION":15.23116762,"ECCENTRICITY":0.00013579,"INCLINATION":97.4188,"RA_OF_ASC_NODE":259.3831,"ARG_OF_PERICENTER":326.1696,"MEAN_ANOMALY":33.9454,"EPHEMERIS_TYPE":0,"NORAD_CAT_ID":66714,"ELEMENT_SET_NO":999,"REV_AT_EPOCH":3310,"BSTAR":0.0012576805,"MEAN_MOTION_DOT":0.00029699,"MEAN_MOTION_DDOT":0},{"OBJECT_NAME":"FLOCK 4H-12","OBJECT_ID":"2025-276BB","EPOCH":"2026-07-05T03:45:14.154048","CLASSIFICATION_TYPE":"U","MEAN_MOTION":15.20719283,"ECCENTRICITY":0.00008498,"INCLINATION":97.4177,"RA_OF_ASC_NODE":259.5609,"ARG_OF_PERICENTER":225.5878,"MEAN_ANOMALY":134.5288,"EPHEMERIS_TYPE":0,"NORAD_CAT_ID":66715,"ELEMENT_SET_NO":999,"REV_AT_EPOCH":3347,"BSTAR":0.00058507476,"MEAN_MOTION_DOT":0.00012812,"MEAN_MOTION_DDOT":0},{"OBJECT_NAME":"FLOCK 4H-13","OBJECT_ID":"2025-276BC","EPOCH":"2026-07-04T23:54:22.784256","CLASSIFICATION_TYPE":"U","MEAN_MOTION":15.20821128,"ECCENTRICITY":0.00011404,"INCLINATION":97.4214,"RA_OF_ASC_NODE":259.5704,"ARG_OF_PERICENTER":153.486,"MEAN_ANOMALY":206.6434,"EPHEMERIS_TYPE":0,"NORAD_CAT_ID":66716,"ELEMENT_SET_NO":999,"REV_AT_EPOCH":3314,"BSTAR":0.0003720503,"MEAN_MOTION_DOT":0.00008141,"MEAN_MOTION_DDOT":0},{"OBJECT_NAME":"FLOCK 4H-14","OBJECT_ID":"2025-276BD","EPOCH":"2026-07-04T15:08:10.624992","CLASSIFICATION_TYPE":"U","MEAN_MOTION":15.21263691,"ECCENTRICITY":0.00010604,"INCLINATION":97.42,"RA_OF_ASC_NODE":259.2531,"ARG_OF_PERICENTER":148.5347,"MEAN_ANOMALY":211.5952,"EPHEMERIS_TYPE":0,"NORAD_CAT_ID":66717,"ELEMENT_SET_NO":999,"REV_AT_EPOCH":3234,"BSTAR":0.00062102052,"MEAN_MOTION_DOT":0.00013823,"MEAN_MOTION_DDOT":0}]}
