FLOCK 4G-17             
1 62681U 25009CA  26186.18723081  .00019210  00000+0  66442-3 0  9999
2 62681  97.3917 267.4644 0003318 259.1424 100.9443 15.29933801139304
FLOCK 4G-33             
1 62685U 25009CE  26186.15469292  .00010461  00000+0  41286-3 0  9999
2 62685  97.3939 265.8210 0003983 259.5793 100.4997 15.25718139 81546
FLOCK 4H-1              
1 66704U 25276AQ  26186.14490590  .00011183  00000+0  51056-3 0  9993
2 66704  97.4169 259.5483 0000966 207.7241 152.3943 15.20761721 33163
FLOCK 4H-2              
1 66705U 25276AR  26186.18617286  .00010600  00000+0  48033-3 0  9995
2 66705  97.4163 259.6340 0000650 156.4004 203.7262 15.21033356 33171
FLOCK 4H-3              
1 66706U 25276AS  26185.44635070  .00008236  00000+0  38383-3 0  9994
2 66706  97.4233 258.8348 0002489 313.0638  47.0389 15.20138430 33048
FLOCK 4H-4              
1 66707U 25276AT  26186.13928155  .00012208  00000+0  57038-3 0  9993
2 66707  97.4217 259.3892 0003152 307.9719  52.1231 15.19939845 33142
FLOCK 4H-5              
1 66708U 25276AU  26186.13752071  .00011560  00000+0  52679-3 0  9992
2 66708  97.4167 259.5614 0000835 124.4060 235.7255 15.20818570 33167
FLOCK 4H-6              
1 66709U 25276AV  26186.18150886  .00011880  00000+0  54597-3 0  9990
2 66709  97.4218 259.6462 0001687 258.0243 102.0803 15.20519761 33165
FLOCK 4H-7              
1 66710U 25276AW  26184.71376440  .00007489  00000+0  34820-3 0  9992
2 66710  97.4178 257.9685 0001703  13.5137 346.6144 15.20255046 32936
FLOCK 4H-8              
1 66711U 25276AX  26186.15340768  .00012937  00000+0  59632-3 0  9999
2 66711  97.4215 259.5277 0002258 330.2933  29.8174 15.20394962 33152
FLOCK 4H-9              
1 66712U 25276AY  26186.16918319  .00011708  00000+0  53543-3 0  9994
2 66712  97.4204 259.6345 0001797 270.8119  89.2911 15.20691854 33160
FLOCK 4H-10             
1 66713U 25276AZ  26186.19002345  .00011868  00000+0  55255-3 0  9990
2 66713  97.4179 259.3773 0002967 310.1847  49.9128 15.20069874 33153
FLOCK 4H-11             
1 66714U 25276BA  26185.64431389  .00029699  00000+0  12577-2 0  9994
2 66714  97.4188 259.3831 0001357 326.1696  33.9454 15.23116762 33102
FLOCK 4H-12             
1 66715U 25276BB  26186.15641382  .00012812  00000+0  58507-3 0  9991
2 66715  97.4177 259.5609 0000849 225.5878 134.5288 15.20719283 33472
FLOCK 4H-13             
1 66716U 25276BC  26185.99609704  .00008141  00000+0  37205-3 0  9997
2 66716  97.4214 259.5704 0001140 153.4860 206.6434 15.20821128 33146
FLOCK 4H-14             
1 66717U 25276BD  26185.63067853  .00013823  00000+0  62102-3 0  9999
2 66717  97.4200 259.2531 0001060 148.5347 211.5952 15.21263691 32340
